{
  "type": "FeatureCollection",
  "features": [
    {
      "type": "Feature",
      "properties": {
        "norad_id": 31307,
        "name": "GALAXY 17 (G-17)",
        "group": "intelsat",
        "lat": 2.2953654683169304,
        "lon": 150.6733164865151,
        "alt_km": 35785.26745185417,
        "timestamp": "2025-12-03T10:52:57.117572+00:00",
        "meta_object_name": "GALAXY 17 (G-17)",
        "meta_object_id": "2007-016B",
        "meta_epoch": "2025-12-03T03:04:44.338080",
        "meta_mean_motion": 1.00270473,
        "meta_eccentricity": 0.0006123,
        "meta_inclination": 2.4738,
        "meta_ra_of_asc_node": 82.3951,
        "meta_arg_of_pericenter": 156.2106,
        "meta_mean_anomaly": 154.8055,
        "meta_ephemeris_type": 0,
        "meta_classification_type": "U",
        "meta_norad_cat_id": 31307,
        "meta_element_set_no": 999,
        "meta_rev_at_epoch": 6783,
        "meta_bstar": 0,
        "meta_mean_motion_dot": -1.88e-06,
        "meta_mean_motion_ddot": 0,
        "tle_line1": "1 31307U 07016B   25337.12829095 -.00000188  00000+0  00000+0 0  9990",
        "tle_line2": "2 31307   2.4738  82.3951 0006123 156.2106 154.8055  1.00270473 67837"
      },
      "geometry": {
        "type": "Point",
        "coordinates": [
          150.6733164865151,
          2.2953654683169304
        ]
      }
    },
    {
      "type": "Feature",
      "properties": {
        "norad_id": 31862,
        "name": "DIRECTV 10",
        "group": "intelsat",
        "lat": 1.6255292046825653e-05,
        "lon": 132.95535111216773,
        "alt_km": 35785.47803614582,
        "timestamp": "2025-12-03T10:52:57.117583+00:00",
        "meta_object_name": "DIRECTV 10",
        "meta_object_id": "2007-032A",
        "meta_epoch": "2025-12-03T01:16:54.672384",
        "meta_mean_motion": 1.00270565,
        "meta_eccentricity": 3.53e-05,
        "meta_inclination": 0.0055,
        "meta_ra_of_asc_node": 216.2593,
        "meta_arg_of_pericenter": 326.4946,
        "meta_mean_anomaly": 165.8273,
        "meta_ephemeris_type": 0,
        "meta_classification_type": "U",
        "meta_norad_cat_id": 31862,
        "meta_element_set_no": 999,
        "meta_rev_at_epoch": 4362,
        "meta_bstar": 0,
        "meta_mean_motion_dot": -8.4e-07,
        "meta_mean_motion_ddot": 0,
        "tle_line1": "1 31862U 07032A   25337.05341056 -.00000084  00000+0  00000+0 0  9997",
        "tle_line2": "2 31862   0.0055 216.2593 0000353 326.4946 165.8273  1.00270565 43628"
      },
      "geometry": {
        "type": "Point",
        "coordinates": [
          132.95535111216773,
          1.6255292046825653e-05
        ]
      }
    },
    {
      "type": "Feature",
      "properties": {
        "norad_id": 32253,
        "name": "INTELSAT 11 (IS-11)",
        "group": "intelsat",
        "lat": 2.675681289037675,
        "lon": 142.20924400135507,
        "alt_km": 36139.273153409595,
        "timestamp": "2025-12-03T10:52:57.117595+00:00",
        "meta_object_name": "INTELSAT 11 (IS-11)",
        "meta_object_id": "2007-044B",
        "meta_epoch": "2025-12-03T03:02:44.528928",
        "meta_mean_motion": 0.99047311,
        "meta_eccentricity": 0.0009278,
        "meta_inclination": 3.0531,
        "meta_ra_of_asc_node": 81.0837,
        "meta_arg_of_pericenter": 160.8909,
        "meta_mean_anomaly": 143.9603,
        "meta_ephemeris_type": 0,
        "meta_classification_type": "U",
        "meta_norad_cat_id": 32253,
        "meta_element_set_no": 999,
        "meta_rev_at_epoch": 6650,
        "meta_bstar": 0,
        "meta_mean_motion_dot": 2e-08,
        "meta_mean_motion_ddot": 0,
        "tle_line1": "1 32253U 07044B   25337.12690427  .00000002  00000+0  00000+0 0  9991",
        "tle_line2": "2 32253   3.0531  81.0837 0009278 160.8909 143.9603  0.99047311 66502"
      },
      "geometry": {
        "type": "Point",
        "coordinates": [
          142.20924400135507,
          2.675681289037675
        ]
      }
    },
    {
      "type": "Feature",
      "properties": {
        "norad_id": 32388,
        "name": "HORIZONS-2",
        "group": "intelsat",
        "lat": 2.0466782443551663,
        "lon": 161.91092150986145,
        "alt_km": 35789.924044438674,
        "timestamp": "2025-12-03T10:52:57.117607+00:00",
        "meta_object_name": "HORIZONS-2",
        "meta_object_id": "2007-063B",
        "meta_epoch": "2025-12-03T03:07:51.540096",
        "meta_mean_motion": 1.00272174,
        "meta_eccentricity": 0.0004963,
        "meta_inclination": 2.0946,
        "meta_ra_of_asc_node": 83.067,
        "meta_arg_of_pericenter": 180.5023,
        "meta_mean_anomaly": 141.8346,
        "meta_ephemeris_type": 0,
        "meta_classification_type": "U",
        "meta_norad_cat_id": 32388,
        "meta_element_set_no": 999,
        "meta_rev_at_epoch": 6584,
        "meta_bstar": 0,
        "meta_mean_motion_dot": -2.35e-06,
        "meta_mean_motion_ddot": 0,
        "tle_line1": "1 32388U 07063B   25337.13045764 -.00000235  00000+0  00000+0 0  9999",
        "tle_line2": "2 32388   2.0946  83.0670 0004963 180.5023 141.8346  1.00272174 65846"
      },
      "geometry": {
        "type": "Point",
        "coordinates": [
          161.91092150986145,
          2.0466782443551663
        ]
      }
    },
    {
      "type": "Feature",
      "properties": {
        "norad_id": 32729,
        "name": "DIRECTV 11",
        "group": "intelsat",
        "lat": -0.0010170809074054679,
        "lon": 136.56209462323073,
        "alt_km": 35785.18931317837,
        "timestamp": "2025-12-03T10:52:57.117619+00:00",
        "meta_object_name": "DIRECTV 11",
        "meta_object_id": "2008-013A",
        "meta_epoch": "2025-12-02T10:08:34.465632",
        "meta_mean_motion": 1.0027113,
        "meta_eccentricity": 4.09e-05,
        "meta_inclination": 0.0114,
        "meta_ra_of_asc_node": 215.6397,
        "meta_arg_of_pericenter": 330.8354,
        "meta_mean_anomaly": 298.008,
        "meta_ephemeris_type": 0,
        "meta_classification_type": "U",
        "meta_norad_cat_id": 32729,
        "meta_element_set_no": 999,
        "meta_rev_at_epoch": 4362,
        "meta_bstar": 0,
        "meta_mean_motion_dot": -1.05e-06,
        "meta_mean_motion_ddot": 0,
        "tle_line1": "1 32729U 08013A   25336.42262113 -.00000105  00000+0  00000+0 0  9990",
        "tle_line2": "2 32729   0.0114 215.6397 0000409 330.8354 298.0080  1.00271130 43620"
      },
      "geometry": {
        "type": "Point",
        "coordinates": [
          136.56209462323073,
          -0.0010170809074054679
        ]
      }
    },
    {
      "type": "Feature",
      "properties": {
        "norad_id": 32951,
        "name": "GALAXY 18 (G-18)",
        "group": "intelsat",
        "lat": 0.02987555546415988,
        "lon": 112.71024873278967,
        "alt_km": 35797.09349193994,
        "timestamp": "2025-12-03T10:52:57.117631+00:00",
        "meta_object_name": "GALAXY 18 (G-18)",
        "meta_object_id": "2008-024A",
        "meta_epoch": "2025-12-02T16:37:27.594336",
        "meta_mean_motion": 1.00272815,
        "meta_eccentricity": 0.0003397,
        "meta_inclination": 0.0216,
        "meta_ra_of_asc_node": 348.532,
        "meta_arg_of_pericenter": 266.2767,
        "meta_mean_anomaly": 303.3251,
        "meta_ephemeris_type": 0,
        "meta_classification_type": "U",
        "meta_norad_cat_id": 32951,
        "meta_element_set_no": 999,
        "meta_rev_at_epoch": 4388,
        "meta_bstar": 0,
        "meta_mean_motion_dot": 0,
        "meta_mean_motion_ddot": 0,
        "tle_line1": "1 32951U 08024A   25336.69268049  .00000000  00000+0  00000+0 0  9995",
        "tle_line2": "2 32951   0.0216 348.5320 0003397 266.2767 303.3251  1.00272815 43880"
      },
      "geometry": {
        "type": "Point",
        "coordinates": [
          112.71024873278967,
          0.02987555546415988
        ]
      }
    },
    {
      "type": "Feature",
      "properties": {
        "norad_id": 33153,
        "name": "INTELSAT 25 (IS-25)",
        "group": "intelsat",
        "lat": 1.8545404511556203,
        "lon": -155.7640383348453,
        "alt_km": 35773.10804018431,
        "timestamp": "2025-12-03T10:52:57.117643+00:00",
        "meta_object_name": "INTELSAT 25 (IS-25)",
        "meta_object_id": "2008-034A",
        "meta_epoch": "2025-12-03T03:19:57.878976",
        "meta_mean_motion": 1.00271477,
        "meta_eccentricity": 0.0005337,
        "meta_inclination": 2.201,
        "meta_ra_of_asc_node": 82.757,
        "meta_arg_of_pericenter": 176.9708,
        "meta_mean_anomaly": 191.0049,
        "meta_ephemeris_type": 0,
        "meta_classification_type": "U",
        "meta_norad_cat_id": 33153,
        "meta_element_set_no": 999,
        "meta_rev_at_epoch": 6373,
        "meta_bstar": 0,
        "meta_mean_motion_dot": -2.05e-06,
        "meta_mean_motion_ddot": 0,
        "tle_line1": "1 33153U 08034A   25337.13886434 -.00000205  00000+0  00000+0 0  9993",
        "tle_line2": "2 33153   2.2010  82.7570 0005337 176.9708 191.0049  1.00271477 63739"
      },
      "geometry": {
        "type": "Point",
        "coordinates": [
          -155.7640383348453,
          1.8545404511556203
        ]
      }
    }
  ]
}